{
  "norad_id": 68665,
  "name": "STARLINK-37171",
  "history": [
    {
      "epoch": "2026-04-22T14:40:34.395744Z",
      "apogee_km": 344.7300225865856,
      "perigee_km": 343.4474219187796,
      "latitude_deg": -4.638997130391754e-05,
      "longitude_deg": -87.15541517902955,
      "height_km": 347.26153943178974,
      "semi_major_axis_km": 6722.225722252682,
      "eccentricity": 9.54e-05,
      "inclination_deg": 97.284,
      "raan_deg": 343.6585,
      "arg_perigee_deg": 90.5331,
      "mean_anomaly_deg": 269.6043,
      "mean_motion_rev_day": 15.75190649
    }
  ]
}